******** Week 935 almanac for PRN-40 ********
ID:                         40
Health:                     000
Eccentricity:               3.3426284790E-003
Time of Applicability(s):   81920.0000
Orbital Inclination(rad):   0.0418309370
Rate of Right Ascen(r/s):  -2.4458161600E-009
SQRT(A)  (m 1/2):           6493.789062
Right Ascen at Week(rad):  -2.4571567160E+000
Argument of Perigee(rad):  -3.010253413
Mean Anom(rad):             9.2615588100E-001
Af0(s):                    -4.6730040000E-005
Af1(s/s):                   0.0000000000E+000
week:                        935

******** Week 935 almanac for PRN-41 ********
ID:                         41
Health:                     000
Eccentricity:               1.4476776123E-003
Time of Applicability(s):   81920.0000
Orbital Inclination(rad):   0.0312069217
Rate of Right Ascen(r/s):  -6.8231413500E-009
SQRT(A)  (m 1/2):           5282.573730
Right Ascen at Week(rad):   3.8495839600E-001
Argument of Perigee(rad):  -1.518241756
Mean Anom(rad):            -1.6799093240E+000
Af0(s):                    -8.7261200000E-004
Af1(s/s):                   0.0000000000E+000
week:                        935

******** Week 935 almanac for PRN-42 ********
ID:                         42
Health:                     000
Eccentricity:               1.2068748474E-003
Time of Applicability(s):   81920.0000
Orbital Inclination(rad):   0.0312368822
Rate of Right Ascen(r/s):  -6.8345704000E-009
SQRT(A)  (m 1/2):           5282.573730
Right Ascen at Week(rad):   3.8553551100E-001
Argument of Perigee(rad):  -1.241369833
Mean Anom(rad):            -3.8996181000E-001
Af0(s):                    -4.8732760000E-004
Af1(s/s):                   7.2759600000E-012
week:                        935

******** Week 935 almanac for PRN-43 ********
ID:                         43
Health:                     000
Eccentricity:               4.2819976807E-004
Time of Applicability(s):   81920.0000
Orbital Inclination(rad):   0.0114629111
Rate of Right Ascen(r/s):  -7.0745804000E-009
SQRT(A)  (m 1/2):           5282.565918
Right Ascen at Week(rad):  -1.7349891960E+000
Argument of Perigee(rad):   0.363292415
Mean Anom(rad):            -6.5656812000E-001
Af0(s):                     5.0544740000E-005
Af1(s/s):                   0.0000000000E+000
week:                        935

******** Week 935 almanac for PRN-44 ********
ID:                         44
Health:                     000
Eccentricity:               6.3991546631E-004
Time of Applicability(s):   81920.0000
Orbital Inclination(rad):   0.0119243038
Rate of Right Ascen(r/s):  -7.0745804000E-009
SQRT(A)  (m 1/2):           5282.570801
Right Ascen at Week(rad):  -1.7346427770E+000
Argument of Perigee(rad):   0.427290049
Mean Anom(rad):             8.0478863900E-001
Af0(s):                     3.1185150000E-004
Af1(s/s):                   1.0913900000E-011
week:                        935

******** Week 935 almanac for PRN-45 ********
ID:                         45
Health:                     000
Eccentricity:               6.1941146851E-004
Time of Applicability(s):   81920.0000
Orbital Inclination(rad):   0.0081912177
Rate of Right Ascen(r/s):  -6.7659961200E-009
SQRT(A)  (m 1/2):           5282.572754
Right Ascen at Week(rad):   2.4856847890E+000
Argument of Perigee(rad):   0.404338011
Mean Anom(rad):            -2.5177227420E+000
Af0(s):                    -5.1498410000E-005
Af1(s/s):                  -3.6379800000E-012
week:                        935

******** Week 935 almanac for PRN-46 ********
ID:                         46
Health:                     000
Eccentricity:               9.3984603882E-004
Time of Applicability(s):   81920.0000
Orbital Inclination(rad):   0.0082211783
Rate of Right Ascen(r/s):  -6.7659961200E-009
SQRT(A)  (m 1/2):           5282.576172
Right Ascen at Week(rad):   2.4862233300E+000
Argument of Perigee(rad):   0.343093753
Mean Anom(rad):            -9.2054501700E-001
Af0(s):                    -1.0490420000E-004
Af1(s/s):                  -3.6379800000E-012
week:                        935

******** Week 935 almanac for PRN-05 ********
ID:                         05
Health:                     000
Eccentricity:               8.6069107056E-004
Time of Applicability(s):   81920.0000
Orbital Inclination(rad):   0.0336457114
Rate of Right Ascen(r/s):   8.6860761000E-010
SQRT(A)  (m 1/2):           6493.481445
Right Ascen at Week(rad):  -4.0164381000E-002
Argument of Perigee(rad):  -2.726714891
Mean Anom(rad):            -2.8007770270E+000
Af0(s):                    -2.7656560000E-005
Af1(s/s):                  -6.1845600000E-011
week:                        935

******** Week 935 almanac for PRN-56 ********
ID:                         56
Health:                     000
Eccentricity:               4.6024322510E-003
Time of Applicability(s):   94208.0000
Orbital Inclination(rad):  -0.0281509443
Rate of Right Ascen(r/s):  -2.7429714000E-009
SQRT(A)  (m 1/2):           6493.225586
Right Ascen at Week(rad):  -2.6700501050E+000
Argument of Perigee(rad):  -2.960955930
Mean Anom(rad):             1.6172280830E+000
Af0(s):                     4.1580200000E-004
Af1(s/s):                   3.6379800000E-012
week:                        935

******** Week 935 almanac for PRN-57 ********
ID:                         57
Health:                     000
Eccentricity:               4.6539306641E-004
Time of Applicability(s):   94208.0000
Orbital Inclination(rad):   0.0337775379
Rate of Right Ascen(r/s):  -6.7545670700E-009
SQRT(A)  (m 1/2):           5282.583984
Right Ascen at Week(rad):  -1.1289896370E+000
Argument of Perigee(rad):  -1.011672688
Mean Anom(rad):            -1.3079508200E-001
Af0(s):                     4.1580200000E-004
Af1(s/s):                   3.6379800000E-012
week:                        935

******** Week 935 almanac for PRN-58 ********
ID:                         58
Health:                     000
Eccentricity:               6.9904327393E-004
Time of Applicability(s):   98304.0000
Orbital Inclination(rad):   0.0324652653
Rate of Right Ascen(r/s):  -7.0745804000E-009
SQRT(A)  (m 1/2):           5282.567871
Right Ascen at Week(rad):   2.0974157510E+000
Argument of Perigee(rad):   0.915884277
Mean Anom(rad):             7.9508179200E-001
Af0(s):                    -9.7656250000E-004
Af1(s/s):                  -1.8917500000E-010
week:                        935

******** Week 935 almanac for PRN-59 ********
ID:                         59
Health:                     000
Eccentricity:               1.2683868408E-004
Time of Applicability(s):   81920.0000
Orbital Inclination(rad):   0.0298287358
Rate of Right Ascen(r/s):  -1.1886209400E-009
SQRT(A)  (m 1/2):           6493.458984
Right Ascen at Week(rad):   8.1393485000E-001
Argument of Perigee(rad):   0.090246831
Mean Anom(rad):             1.2308866320E+000
Af0(s):                    -9.5367430000E-007
Af1(s/s):                   0.0000000000E+000
week:                        935

******** Week 935 almanac for PRN-06 ********
ID:                         06
Health:                     000
Eccentricity:               3.7727355957E-003
Time of Applicability(s):   81920.0000
Orbital Inclination(rad):   0.0033555830
Rate of Right Ascen(r/s):  -1.7829314100E-009
SQRT(A)  (m 1/2):           6493.147461
Right Ascen at Week(rad):   1.7417576620E+000
Argument of Perigee(rad):  -2.991447917
Mean Anom(rad):             2.8251709160E+000
Af0(s):                     5.2452090000E-005
Af1(s/s):                   1.8189900000E-011
week:                        935

******** Week 935 almanac for PRN-60 ********
ID:                         60
Health:                     000
Eccentricity:               3.2234191895E-004
Time of Applicability(s):   81920.0000
Orbital Inclination(rad):   0.0371031603
Rate of Right Ascen(r/s):   1.5200633200E-009
SQRT(A)  (m 1/2):           6493.461914
Right Ascen at Week(rad):  -8.8946842300E-001
Argument of Perigee(rad):  -2.258586723
Mean Anom(rad):            -2.0478029330E+000
Af0(s):                     0.0000000000E+000
Af1(s/s):                   0.0000000000E+000
week:                        935

******** Week 935 almanac for PRN-61 ********
ID:                         61
Health:                     000
Eccentricity:               1.0051727295E-003
Time of Applicability(s):   81920.0000
Orbital Inclination(rad):   0.0103783388
Rate of Right Ascen(r/s):   1.4972052200E-009
SQRT(A)  (m 1/2):           6493.596191
Right Ascen at Week(rad):  -1.1762441840E+000
Argument of Perigee(rad):  -0.910544555
Mean Anom(rad):            -2.5770311730E+000
Af0(s):                     9.5367430000E-007
Af1(s/s):                   0.0000000000E+000
week:                        935

******** Week 935 almanac for PRN-62 ********
ID:                         62
Health:                     000
Eccentricity:               4.1198730469E-004
Time of Applicability(s):   81920.0000
Orbital Inclination(rad):   0.0458276760
Rate of Right Ascen(r/s):   9.6003999000E-010
SQRT(A)  (m 1/2):           6493.395508
Right Ascen at Week(rad):  -2.4943235430E+000
Argument of Perigee(rad):  -2.181817651
Mean Anom(rad):             8.7537534900E-001
Af0(s):                     0.0000000000E+000
Af1(s/s):                   0.0000000000E+000
week:                        935

